COMMENT,ORIGINATOR,NORAD_CAT_ID,OBJECT_NAME,OBJECT_TYPE,CLASSIFICATION_TYPE,INTLDES,EPOCH,EPOCH_MICROSECONDS,MEAN_MOTION,ECCENTRICITY,INCLINATION,RA_OF_ASC_NODE,ARG_OF_PERICENTER,MEAN_ANOMALY,EPHEMERIS_TYPE,ELEMENT_SET_NO,REV_AT_EPOCH,BSTAR,MEAN_MOTION_DOT,MEAN_MOTION_DDOT,FILE,TLE_LINE0,TLE_LINE1,TLE_LINE2,OBJECT_ID,OBJECT_NUMBER,SEMIMAJOR_AXIS,PERIOD,APOGEE,PERIGEE
"GENERATED VIA SPACETRACK.ORG API","JSPOC","37931","SHIYUAN 4 (SY-4)","PAYLOAD","U","11068B","2016-01-11 17:46:31","494720","14.29838832","0.0014344","98.4841","6.2855","134.1739","226.062","0","999","21628","2.9701e-05","3.4e-07","0","1979169","0 SHIYUAN 4 (SY-4)","1 37931U 11068B   16011.74064230  .00000034  00000-0  29701-4 0  9994","2 37931  98.4841   6.2855 0014344 134.1739 226.0620 14.29838832216284","2011-068B","37931","7170.406","100.710","802.556","781.986"
"GENERATED VIA SPACETRACK.ORG API","JSPOC","23833","NAVSTAR 37 (USA 117)","PAYLOAD","U","96019A","2016-01-11 17:46:36","719328","1.94618337","0.0009467","54.1584","52.8311","281.7453","213.1686","0","999","862","0","-3.1e-07","0","1979502","0 NAVSTAR 37 (USA 117)","1 23833U 96019A   16011.74070277 -.00000031 +00000-0 +00000-0 0  9992","2 23833 054.1584 052.8311 0009467 281.7453 213.1686 01.94618337008629","1996-019A","23833","27098.546","739.909","20746.066","20694.757"
"GENERATED VIA SPACETRACK.ORG API","JSPOC","32254","ARIANE 5 R/B","ROCKET BODY","U","07044C","2016-01-11 17:46:43","646016","2.46346161","0.7081242","4.451","261.1631","307.5821","7.3122","0","999","7402","-7.4757e-05","-9.9e-07","0","1979502","0 ARIANE 5 R/B","1 32254U 07044C   16011.74078294 -.00000099 +00000-0 -74757-4 0  9995","2 32254 004.4510 261.1631 7081242 307.5821 007.3122 02.46346161074023","2007-044C","32254","23158.191","584.543","33178.932","381.180"
"GENERATED VIA SPACETRACK.ORG API","JSPOC","40369","FENGYUN 2G AKM","ROCKET BODY","U","14090C","2016-01-11 17:47:14","89920","0.99581217","0.004334","1.5713","274.9149","258.4587","101.8491","0","999","375","0","-8e-08","0","1979231","0 FENGYUN 2G AKM","1 40369U 14090C   16011.74113530 -.00000008  00000-0  00000+0 0  9997","2 40369   1.5713 274.9149 0043340 258.4587 101.8491  0.99581217  3751","2014-090C","40369","42359.441","1446.055","36164.891","35797.720"
"GENERATED VIA SPACETRACK.ORG API","JSPOC","40369","FENGYUN 2G AKM","ROCKET BODY","U","14090C","2016-01-11 17:47:14","539200","0.99581156","0.0043319","1.5713","274.9147","258.4411","101.8668","0","999","369","0","-8e-08","0","1979855","0 FENGYUN 2G AKM","1 40369U 14090C   16011.74114050 -.00000008 +00000-0 +00000-0 0  9996","2 40369 001.5713 274.9147 0043319 258.4411 101.8668 00.99581156003692","2014-090C","40369","42359.458","1446.056","36164.820","35797.826"
"GENERATED VIA SPACETRACK.ORG API","JSPOC","21732","COSMOS 2161","PAYLOAD","U","91068E","2016-01-11 17:47:22","131168","12.65186609","0.001064","82.5744","209.2516","11.942","118.1399","0","999","12152","1.8155e-05","1.4e-07","0","1979502","0 COSMOS 2161","1 21732U 91068E   16011.74122837 +.00000014 +00000-0 +18155-4 0  9991","2 21732 082.5744 209.2516 0010640 011.9420 118.1399 12.65186609121527","1991-068E","21732","7779.746","113.817","1409.889","1393.333"
"GENERATED VIA SPACETRACK.ORG API","JSPOC","7438","COSMOS 680","PAYLOAD","U","74072D","2016-01-11 17:47:25","192320","12.46594918","0.001538","74.0357","117.0499","40.3139","114.0963","0","999","87994","5.3994e-05","-8e-08","0","1979502","0 COSMOS 680","1  7438U 74072D   16011.74126380 -.00000008 +00000-0 +53994-4 0  9995","2  7438 074.0357 117.0499 0015380 040.3139 114.0963 12.46594918879948","1974-072D","7438","7856.906","115.514","1490.855","1466.687"
"GENERATED VIA SPACETRACK.ORG API","JSPOC","38860","SJ-9A","PAYLOAD","U","12056A","2016-01-11 17:47:30","988032","14.7900945","0.0030631","97.8776","89.5621","97.3644","263.1054","0","999","17512","6.7434e-05","4.5e-06","0","1979122","0 SJ-9A","1 38860U 12056A   16011.74133088  .00000450  00000-0  67434-4 0  9999","2 38860  97.8776  89.5621 0030631  97.3644 263.1054 14.79009450175124","2012-056A","38860","7010.589","97.362","653.928","610.980"
"GENERATED VIA SPACETRACK.ORG API","JSPOC","20720","COSMOS 2088","PAYLOAD","U","90066A","2016-01-11 17:48:05","191200","12.40726316","0.0026287","73.5997","96.9151","305.2107","230.3907","0","999","15290","0.00014401","2e-08","0","1979098","0 COSMOS 2088","1 20720U 90066A   16011.74172675  .00000002  00000-0  14401-3 0  9995","2 20720  73.5997  96.9151 0026287 305.2107 230.3907 12.40726316152900","1990-066A","20720","7881.662","116.061","1524.246","1482.809"
"GENERATED VIA SPACETRACK.ORG API","JSPOC","3174","OV1-14","PAYLOAD","U","68026B","2016-01-11 17:48:19","11744","6.96294839","0.3979377","100.0613","281.3702","246.4179","74.9427","0","999","21137","-0.00013245","-7.5e-07","0","1979164","0 OV1-14","1 03174U 68026B   16011.74188671 -.00000075  00000-0 -13245-3 0  9990","2 03174 100.0613 281.3702 3979377 246.4179  74.9427  6.96294839211372","1968-026B","3174","11584.386","206.808","9816.116","596.387"
"GENERATED VIA SPACETRACK.ORG API","JSPOC","25661","SEA LAUNCH DEMO","PAYLOAD","U","99014A","2016-01-11 17:48:27","388224","2.23249717","0.7161633","1.2627","324.7224","5.3769","359.2267","0","999","13699","-0.00031724","-1.31e-06","0","1979077","0 SEA LAUNCH DEMO","1 25661U 99014A   16011.74198366 -.00000131  00000-0 -31724-3 0  9993","2 25661   1.2627 324.7224 7161633   5.3769 359.2267  2.23249717136990","1999-014A","25661","24729.076","645.017","36060.998","640.884"
"GENERATED VIA SPACETRACK.ORG API","JSPOC","25661","SEA LAUNCH DEMO","PAYLOAD","U","99014A","2016-01-11 17:48:27","412416","2.23249713","0.7161638","1.2626","324.7231","5.3763","359.2269","0","999","13698","-0.00031103","-1.3e-06","0","1979502","0 SEA LAUNCH DEMO","1 25661U 99014A   16011.74198394 -.00000130 +00000-0 -31103-3 0  9994","2 25661 001.2626 324.7231 7161638 005.3763 359.2269 02.23249713136983","1999-014A","25661","24729.076","645.017","36061.011","640.872"
"GENERATED VIA SPACETRACK.ORG API","JSPOC","40921","COSMOS 2508","PAYLOAD","U","15050B","2016-01-11 17:48:31","259808","12.42860357","0.0015091","82.4898","291.1725","47.6356","312.6","0","999","1363","0","1e-07","0","1979149","0 COSMOS 2508","1 40921U 15050B   16011.74202847  .00000010  00000-0  00000+0 0  9990","2 40921  82.4898 291.1725 0015091  47.6356 312.6000 12.42860357 13634","2015-050B","40921","7872.638","115.861","1506.383","1482.622"
"GENERATED VIA SPACETRACK.ORG API","JSPOC","19922","SL-8 R/B","ROCKET BODY","U","89028B","2016-01-11 17:48:33","862176","13.77160691","0.0035115","82.96","94.3483","268.7525","207.9708","0","999","34506","4.9981e-05","6.5e-07","0","1979502","0 SL-8 R/B","1 19922U 89028B   16011.74205859 +.00000065 +00000-0 +49981-4 0  9995","2 19922 082.9600 094.3483 0035115 268.7525 207.9708 13.77160691345063","1989-028B","19922","7352.111","104.562","999.793","948.159"
"GENERATED VIA SPACETRACK.ORG API","JSPOC","10492","SL-8 R/B","ROCKET BODY","U","77109B","2016-01-11 17:48:34","459200","13.19644041","0.0018876","82.925","278.1881","248.5975","138.8086","0","999","83615","0.00012012","6.1e-07","0","1979502","0 SL-8 R/B","1 10492U 77109B   16011.74206550 +.00000061 +00000-0 +12012-3 0  9994","2 10492 082.9250 278.1881 0018876 248.5975 138.8086 13.19644041836159","1977-109B","10492","7564.216","109.120","1200.360","1171.803"
"GENERATED VIA SPACETRACK.ORG API","JSPOC","40718","CARBONITE 1","PAYLOAD","U","15032D","2016-01-11 17:48:51","263136","14.74346343","0.0017366","98.03","264.3703","18.951","341.2354","0","999","2726","6.5112e-05","3.81e-06","0","1979502","0 CARBONITE 1","1 40718U 15032D   16011.74225999 +.00000381 +00000-0 +65112-4 0  9998","2 40718 098.0300 264.3703 0017366 018.9510 341.2354 14.74346343027262","2015-032D","40718","7025.363","97.670","659.429","635.028"
"GENERATED VIA SPACETRACK.ORG API","JSPOC","23730","TELECOM 2C","PAYLOAD","U","95067A","2016-01-11 17:48:53","249472","0.97941016","0.0020001","10.11","44.0151","209.1256","150.8041","0","999","7315","0","-1.11e-06","0","1979502","0 TELECOM 2C","1 23730U 95067A   16011.74228298 -.00000111 +00000-0 +00000-0 0  9997","2 23730 010.1100 044.0151 0020001 209.1256 150.8041 00.97941016073155","1995-067A","23730","42831.054","1470.272","36538.586","36367.253"
"GENERATED VIA SPACETRACK.ORG API","JSPOC","18113","COSMOS 1852","PAYLOAD","U","87051A","2016-01-11 17:49:08","289984","12.44835367","0.0017262","74.0047","105.7037","208.6185","320.5492","0","999","29836","0.00011591","1e-08","0","1979502","0 COSMOS 1852","1 18113U 87051A   16011.74245706 +.00000001 +00000-0 +11591-3 0  9990","2 18113 074.0047 105.7037 0017262 208.6185 320.5492 12.44835367298365","1987-051A","18113","7864.308","115.677","1499.749","1472.598"
"GENERATED VIA SPACETRACK.ORG API","JSPOC","3129","COSMOS 203","PAYLOAD","U","68011A","2016-01-11 17:49:09","105600","13.18203141","0.0013186","74.0518","56.385","301.4775","196.211","0","999","30398","0.00033156","1.11e-06","0","1979502","0 COSMOS 203","1  3129U 68011A   16011.74246650 +.00000111 +00000-0 +33156-3 0  9998","2  3129 074.0518 056.3850 0013186 301.4775 196.2110 13.18203141303982","1968-011A","3129","7569.728","109.239","1201.574","1181.611"
"GENERATED VIA SPACETRACK.ORG API","JSPOC","16615","ARIANE 1 R/B","ROCKET BODY","U","86019C","2016-01-11 17:49:16","90176","14.315566","0.0012587","98.6807","75.1696","139.1745","11.6373","0","999","56466","5.1059e-05","9.1e-07","0","1979502","0 ARIANE 1 R/B","1 16615U 86019C   16011.74254734 +.00000091 +00000-0 +51059-4 0  9992","2 16615 098.6807 075.1696 0012587 139.1745 011.6373 14.31556600564665","1986-019C","16615","7164.669","100.589","795.552","777.516"
